BEIDOU-3 M15 (C34)      
1 43648U 18078B   26116.60200409 -.00000059  00000+0  00000+0 0  9999
2 43648  54.1328 301.7937 0005208  50.2977 309.7445  1.86232072 51217
BEIDOU-3 G1 (C59)       
1 43683U 18085A   26117.33703758 -.00000117  00000+0  00000+0 0  9997
2 43683   2.9474  98.7204 0007400 333.3641  64.4946  1.00265526 27555
COSMOS 2529 (757)       
1 43687U 18086A   26113.27787794 -.00000007  00000+0  00000+0 0  9991
2 43687  64.2929 194.4473 0010094 254.9023 105.0366  2.13101977 58110
BEIDOU-3 M17 (C36)      
1 43706U 18093A   26117.36641638  .00000013  00000+0  00000+0 0  9997
2 43706  54.1668 184.0206 0009054 291.5790 113.2072  1.86228452 50597
BEIDOU-3 M18 (C37)      
1 43707U 18093B   26117.16247674  .00000010  00000+0  00000+0 0  9995
2 43707  54.1675 184.0196 0007083 324.7692  35.2480  1.86226384 50581
GPS BIII-1  (PRN 04)    
1 43873U 18109A   26116.40139615  .00000039  00000+0  00000+0 0  9999
2 43873  55.6514  94.2279 0037898 198.8751 333.4999  2.00559161 54031
BEIDOU-3 IGSO-1 (C38)   
1 44204U 19023A   26110.03709628 -.00000228  00000+0  00000+0 0  9995
2 44204  58.6186  38.2497 0024357 235.9811  64.3555  1.00256582  6624
BEIDOU-2 G8 (C01)       
1 44231U 19027A   26117.56177785 -.00000255  00000+0  00000+0 0  9997
2 44231   1.5318  74.3748 0011015 279.4961 208.4101  1.00268123 25571
COSMOS 2534 (758)       
1 44299U 19030A   26117.39932000 -.00000002  00000+0  00000+0 0  9995
2 44299  64.3658 194.3260 0011922 276.5401 139.7535  2.13102237 53841
BEIDOU-3 IGSO-2 (C39)   
1 44337U 19035A   26117.01669462 -.00000091  00000+0  00000+0 0  9999
2 44337  55.2356 159.3113 0039369 215.1323 326.1005  1.00282395 25159
GPS BIII-2  (PRN 18)    
1 44506U 19056A   26117.03436081 -.00000081  00000+0  00000+0 0  9990
2 44506  55.6599 333.1752 0059578 197.4088 334.1665  2.00569164 49043
BEIDOU-3 M24 (C46)      
1 44542U 19061A   26117.23177363  .00000010  00000+0  00000+0 0  9994
2 44542  54.3942 184.4465 0008052   6.3303 353.7438  1.86228962 44847
BEIDOU-3 M23 (C45)      
1 44543U 19061B   26117.35306899  .00000012  00000+0  00000+0 0  9998
2 44543  54.3929 184.4106 0005039 348.6515   4.6594  1.86227195 44846
EUTELSAT 5 WEST B (EGN*)
1 44624U 19067A   26117.22822620 -.00000052  00000+0  00000+0 0  9990
2 44624   0.0693  11.9053 0003183  24.7405 255.7273  1.00271585 23922
BEIDOU-3 IGSO-3 (C40)   
1 44709U 19073A   26116.86055463 -.00000201  00000+0  00000+0 0  9999
2 44709  54.8910 281.4498 0042200 188.8144 171.0242  1.00252491 23940
BEIDOU-3 M22 (C44)      
1 44793U 19078A   26115.99699650 -.00000055  00000+0  00000+0 0  9999
2 44793  53.9841 301.6629 0007305  45.8856 314.1715  1.86226949 43676
BEIDOU-3 M21 (C43)      
1 44794U 19078B   26116.67401454 -.00000060  00000+0  00000+0 0  9995
2 44794  53.9567 301.6016 0005184  43.3217 316.7148  1.86227493 43694
COSMOS 2544 (759)       
1 44850U 19088A   26112.65642860  .00000025  00000+0  00000+0 0  9991
2 44850  65.5361  75.5832 0015132 261.9687  97.8399  2.13101758 49534
BEIDOU-3 M19 (C41)      
1 44864U 19090A   26117.11905514 -.00000046  00000+0  00000+0 0  9997
2 44864  56.5169  64.4771 0019746 296.1881 199.1410  1.86231407 43285
BEIDOU-3 M20 (C42)      
1 44865U 19090B   26116.40926545 -.00000038  00000+0  00000+0 0  9997
2 44865  56.5180  64.5353 0017474 308.3640 160.6881  1.86231167 43256
BEIDOU-3 G2 (C60)       
1 45344U 20017A   26117.00898125 -.00000149  00000+0  00000+0 0  9993
2 45344   2.7634  46.5387 0002550 348.2319 263.5062  1.00271422 22747
COSMOS 2545 (760)       
1 45358U 20018A   26117.07515941 -.00000032  00000+0  00000+0 0  9999
2 45358  64.3860 314.2154 0007174 238.6817 121.2732  2.13102376 47574
BEIDOU-3 G3 (C61)       
1 45807U 20040A   26117.49047071 -.00000361  00000+0  00000+0 0  9998
2 45807   2.3248  67.2965 0003780 329.9684 105.3197  1.00270098 21566
GPS BIII-3  (PRN 23)    
1 45854U 20041A   26117.09853679 -.00000106  00000+0  00000+0 0  9993
2 45854  56.6387  30.9255 0062218 205.0319 313.2798  2.00559759 43019
GALAXY 30 (WAAS/PRN 135)
1 46114U 20056C   26117.03966138  .00000000  00000+0  00000+0 0  9990
2 46114   0.0126 236.3465 0002527 172.8147  55.1468  1.00271333 20788
COSMOS 2547 (705K)      
1 46805U 20075A   26117.26421145 -.00000003  00000+0  00000+0 0  9991
2 46805  64.5969 194.1741 0008364 236.7857 123.1845  2.13100275 42821
GPS BIII-4  (PRN 14)    
1 46826U 20078A   26112.92753654 -.00000017  00000+0  00000+0 0  9993
2 46826  53.9891 213.0193 0070939 205.6597 155.6852  2.00564823 40404
GPS BIII-5  (PRN 11)    
1 48859U 21054A   26117.41549758 -.00000084  00000+0  00000+0 0  9997
2 48859  55.1967 334.5003 0024041 229.8581 317.6354  2.00572318 35738
QZS-1R (QZSS/PRN 196)   
1 49336U 21096A   26117.22127905 -.00000237  00000+0  00000+0 0  9999
2 49336  37.3604  80.3327 0751436 270.8549  79.3818  1.00272987 16496
GSAT0223 (GALILEO 27)   
1 49809U 21116A   26116.95302962 -.00000091  00000+0  00000+0 0  9992
2 49809  57.1768 343.0587 0000603 260.8560  95.4130  1.70475733 27303
GSAT0224 (GALILEO 28)   
1 49810U 21116B   26114.72218082 -.00000089  00000+0  00000+0 0  9993
2 49810  57.1774 343.1180 0000625  14.3979 165.3634  1.70475626 27297
COSMOS 2557 (706K)      
1 52984U 22075A   26116.95964515 -.00000033  00000+0  00000+0 0  9999
2 52984  64.3278 316.2899 0010196 281.3644  78.5490  2.13101838 29622
COSMOS 2559 (707K)      
1 54031U 22130A   26115.84062453 -.00000029  00000+0  00000+0 0  9998
2 54031  64.3018 316.4145 0011364 176.1051 183.9320  2.13101453 27574
COSMOS 2564 (761)       
1 54377U 22161A   26117.09180574 -.00000005  00000+0  00000+0 0  9993
2 54377  64.7390 194.4071 0011053 219.7400 140.2284  2.13101958 26544
GPS BIII-6  (PRN 28)    
1 55268U 23009A   26116.15940615  .00000060  00000+0  00000+0 0  9991
2 55268  55.1147 150.5635 0005615 315.2799  82.8080  2.00574943 24207
BEIDOU-3 G4 (C62)       
1 56564U 23066A   26117.47188631 -.00000291  00000+0  00000+0 0  9999
2 56564   0.5561 320.1476 0002857 159.8914  45.3872  1.00272248 10889
NVS-01 (IRNSS-1J)       
1 56759U 23076A   26117.47492605 -.00000347  00000+0  00000+0 0  9997
2 56759   2.2854 246.5344 0005374  50.3148 219.0984  1.00268169 10606
COSMOS 2569 (703K)      
1 57517U 23114A   26117.10429045 -.00000004  00000+0  00000+0 0  9991
2 57517  65.2749  74.3420 0012393 295.4044  64.4431  2.13103778 21171
BEIDOU-3 M28 (C50)      
1 58654U 23207A   26116.75122104 -.00000044  00000+0  00000+0 0  9997
2 58654  55.7097  64.0374 0004600 323.2817  36.6572  1.86229709 15888
BEIDOU-3 M26 (C48)      
1 58655U 23207B   26117.08567175 -.00000048  00000+0  00000+0 0  9990
2 58655  55.7120  64.0127 0004960 305.1993  54.7237  1.86229693 15875
GSAT0225 (GALILEO 29)   
1 59598U 24079A   26116.51256791  .00000043  00000+0  00000+0 0  9995
2 59598  55.0873 102.5222 0002644 283.7060 268.0228  1.70474393 12438
GSAT0227 (GALILEO 30)   
1 59600U 24079C   26116.97013875  .00000041  00000+0  00000+0 0  9991
2 59600  55.0827 102.5083 0001264  14.0321 345.9647  1.70474385 12495
GSAT0232 (GALILEO 32)   
1 61182U 24167A   26115.45016990 -.00000037  00000+0  00000+0 0  9996
2 61182  55.2008 222.7596 0004844 214.4336 148.2272  1.70474394  9987
GSAT0226 (GALILEO 31)   
1 61183U 24167B   26117.06262813 -.00000038  00000+0  00000+0 0  9994
2 61183  55.1989 222.7226 0001799 195.0012 168.6094  1.70474449  9985
BEIDOU-3 M25 (C47)      
1 61186U 24168B   26117.44093380 -.00000066  00000+0  00000+0 0  9992
2 61186  54.5193 304.0043 0003273 319.1670  36.1200  1.86230124 10838
BEIDOU-3 M27 (C49)      
1 61187U 24168C   26116.97760779 -.00000062  00000+0  00000+0 0  9999
2 61187  54.5152 304.0035 0002608  40.2618 139.4025  1.86230201  8307
GPS BIII-7  (PRN 01)    
1 62339U 24242A   26116.23725212 -.00000085  00000+0  00000+0 0  9999
2 62339  54.8705 336.2872 0016832   0.5482 176.6523  2.00570556 10218
NVS-02 (IRNSS-1K)       
1 62850U 25020A   26116.56641438  .00001566  00000+0  12860-2 0  9999
2 62850  20.7920 278.1255 7348841 115.0158 334.4623  2.17876983  9857
QZS-6 (QZSS/PRN 200)    
1 62876U 25023A   26117.34767167  .00000000  00000+0  00000+0 0  9997
2 62876   0.0139  71.2493 0002727 335.1976  24.5374  1.00271463  4443
COSMOS 2584 (704K)      
1 63130U 25042A   26116.99118921 -.00000002  00000+0  00000+0 0  9993
2 63130  65.0570  74.5414 0006740 237.4306 122.4806  2.13103661  8953
GPS BIII-8  (PRN 21)    
1 64202U 25116A   26113.24280751 -.00000081  00000+0  00000+0 0  9999
2 64202  55.1985  33.3417 0009124 335.2523  22.0569  2.00549673  6768
COSMOS 2596 (708K)      
1 65590U 25206B   26116.13860336 -.00000029  00000+0  00000+0 0  9996
2 65590  64.6645 316.7970 0011576 316.9570 225.8124  2.13100475  4801
GSAT0233 (GALILEO 33)   
1 67160U 25302A   26116.60777961  .00000042  00000+0  00000+0 0  9995
2 67160  54.3025 103.5985 0002100 244.3299 296.6080  1.70474442  2240
GSAT0234 (GALILEO 34)   
1 67162U 25302C   26117.48698374  .00000039  00000+0  00000+0 0  9990
2 67162  54.3058 103.5724 0003915 291.9909 248.6444  1.70474494  2316
GPS BIII-9  (PRN 20)    
1 67588U 26017A   26110.36440864  .00000023  00000+0  00000+0 0  9998
2 67588  55.0497  91.0746 0024611 254.1378 105.5744  2.00572232430452
GPS BIII-10             
1 68791U 26087A   26112.34150053  .00002417  00000+0  19778-2 0  9994
2 68791  54.9968 210.8716 5942075 270.2176  26.1146  4.03281331    56
